NORAD_CAT_ID,OBJECT_NAME,OBJECT_TYPE,EPOCH,MEAN_MOTION,ECCENTRICITY,INCLINATION,RA_OF_ASC_NODE,ARG_OF_PERICENTER,MEAN_ANOMALY,BSTAR,MEAN_MOTION_DOT,MEAN_MOTION_DDOT,TLE_LINE0,TLE_LINE1,TLE_LINE2,SEMIMAJOR_AXIS,PERIOD,APOGEE,PERIGEE,DECAYED
53635.0,STARLINK-4587,PAYLOAD,2024-05-08 23:40:43,15.0884799,0.0001126,53.2151,350.483,128.1611,231.9482,0.00022398,3.279e-05,0.0,0 STARLINK-4587,1 53635U 22104AZ  24129.98661134  .00003279  00000-0  22398-3 0  9995,2 53635  53.2151 350.4830 0001126 128.1611 231.9482 15.08847990 94108,6917.856,95.437,540.5,538.942,0.0
53635.0,STARLINK-4587,PAYLOAD,2024-05-09 07:37:37,15.0886669,0.0001371,53.2192,348.9973,95.1301,264.9847,0.00023906,3.521e-05,0.0,0 STARLINK-4587,1 53635U 22104AZ  24130.31779825  .00003521  00000-0  23906-3 0  9997,2 53635  53.2192 348.9973 0001371  95.1301 264.9847 15.08866690 94158,6917.799,95.436,540.612,538.715,0.0
53635.0,STARLINK-4587,PAYLOAD,2024-05-09 18:45:20,15.08849706,0.000141,53.2161,346.9136,97.1811,262.9341,0.00031053,4.659e-05,0.0,0 STARLINK-4587,1 53635U 22104AZ  24130.78149110  .00004659  00000-0  31053-3 0  9991,2 53635  53.2161 346.9136 0001410  97.1811 262.9341 15.08849706 94229,6917.851,95.437,540.691,538.74,0.0
53635.0,STARLINK-4587,PAYLOAD,2024-05-09 21:56:08,15.08819665,0.0001508,53.2173,346.3218,87.3851,272.7314,-0.00016121,-2.851e-05,0.0,0 STARLINK-4587,1 53635U 22104AZ  24130.91398882 -.00002851  00000-0 -16121-3 0  9991,2 53635  53.2173 346.3218 0001508  87.3851 272.7314 15.08819665 95265,6917.943,95.439,540.851,538.764,0.0
53635.0,STARLINK-4587,PAYLOAD,2024-05-09 23:31:31,15.08823203,0.0001368,53.2171,346.0239,100.8708,259.2438,-0.00011802,-2.165e-05,0.0,0 STARLINK-4587,1 53635U 22104AZ  24130.98022650 -.00002165  00000-0 -11802-3 0  9994,2 53635  53.2171 346.0239 0001368 100.8708 259.2438 15.08823203 94257,6917.932,95.439,540.743,538.85,0.0
53635.0,STARLINK-4587,PAYLOAD,2024-05-10 13:49:59,15.08828768,0.0001267,53.2188,343.3423,98.045,262.0686,-3.9016e-05,-9.09e-06,0.0,0 STARLINK-4587,1 53635U 22104AZ  24131.57638799 -.00000909  00000-0 -39016-4 0  9999,2 53635  53.2188 343.3423 0001267  98.0450 262.0686 15.08828768 95361,6917.915,95.438,540.656,538.903,0.0
53635.0,STARLINK-4587,PAYLOAD,2024-05-10 20:11:31,15.08848153,0.0001211,53.2148,342.156,96.8665,263.2465,0.0002428,3.579e-05,0.0,0 STARLINK-4587,1 53635U 22104AZ  24131.84133899  .00003579  00000-0  24280-3 0  9990,2 53635  53.2148 342.1560 0001211  96.8665 263.2465 15.08848153 94388,6917.855,95.437,540.558,538.883,0.0
53635.0,STARLINK-4587,PAYLOAD,2024-05-10 21:46:54,15.08857552,0.0001436,53.2167,341.8589,90.5868,269.5289,0.00066046,0.00010244,0.0,0 STARLINK-4587,1 53635U 22104AZ  24131.90757813  .00010244  00000-0  66046-3 0  9998,2 53635  53.2167 341.8589 0001436  90.5868 269.5289 15.08857552 95412,6917.827,95.436,540.685,538.698,0.0
53635.0,STARLINK-4587,PAYLOAD,2024-05-10 23:22:18,15.08860369,0.0001539,53.2164,341.5613,86.9788,273.138,0.0020948,0.00033227,0.0,0 STARLINK-4587,1 53635U 22104AZ  24131.97382347  .00033227  00000-0  20948-2 0  9997,2 53635  53.2164 341.5613 0001539  86.9788 273.1380 15.08860369 94409,6917.818,95.436,540.748,538.618,0.0
53635.0,STARLINK-4587,PAYLOAD,2024-05-11 20:02:14,15.08788018,0.0001601,53.2179,337.6941,92.7698,267.3478,-0.0056422,-0.00088851,0.0,0 STARLINK-4587,1 53635U 22104AZ  24132.83488430 -.00088851  00000-0 -56422-2 0  9994,2 53635  53.2179 337.6941 0001601  92.7698 267.3478 15.08788018 94537,6918.039,95.441,541.012,538.797,0.0
53635.0,STARLINK-4587,PAYLOAD,2024-05-12 07:10:00,15.08745775,0.0001708,53.2167,335.6123,89.4476,270.6712,-0.0028712,-0.00045578,0.0,0 STARLINK-4587,1 53635U 22104AZ  24133.29861595 -.00045578  00000-0 -28712-2 0  9992,2 53635  53.2167 335.6123 0001708  89.4476 270.6712 15.08745775 95621,6918.168,95.444,541.215,538.852,0.0
53635.0,STARLINK-4587,PAYLOAD,2024-05-12 19:53:10,15.0868836,0.0001635,53.2187,333.2349,99.2585,260.8592,0.00030819,4.6e-05,0.0,0 STARLINK-4587,1 53635U 22104AZ  24133.82859479  .00004600  00000-0  30819-3 0  9990,2 53635  53.2187 333.2349 0001635  99.2585 260.8592 15.08688360 94684,6918.344,95.447,541.34,539.078,0.0
53635.0,STARLINK-4587,PAYLOAD,2024-05-13 13:22:27,15.08787038,0.000115,53.2175,329.9632,105.8267,254.2852,0.0018584,0.00029369,0.0,0 STARLINK-4587,1 53635U 22104AZ  24134.55725768  .00029369  00000-0  18584-2 0  9997,2 53635  53.2175 329.9632 0001150 105.8267 254.2852 15.08787038 94791,6918.042,95.441,540.703,539.112,0.0
53635.0,STARLINK-4587,PAYLOAD,2024-05-13 19:43:59,15.08846668,0.0001746,53.2168,328.7739,115.8842,244.233,0.0025282,0.00040186,0.0,0 STARLINK-4587,1 53635U 22104AZ  24134.82221396  .00040186  00000-0  25282-2 0  9998,2 53635  53.2168 328.7739 0001746 115.8842 244.2330 15.08846668 94839,6917.86,95.437,540.933,538.517,0.0
53635.0,STARLINK-4587,PAYLOAD,2024-05-14 13:13:11,15.08893259,0.000151,53.2176,325.5021,121.1029,239.0112,0.00073728,0.00011482,0.0,0 STARLINK-4587,1 53635U 22104AZ  24135.55082610  .00011482  00000-0  73728-3 0  9999,2 53635  53.2176 325.5021 0001510 121.1029 239.0112 15.08893259 95966,6917.718,95.434,540.627,538.538,0.0
53635.0,STARLINK-4587,PAYLOAD,2024-05-14 19:34:43,15.08897953,0.0001052,53.2176,324.3124,122.6265,237.4828,0.0011219,0.0001764,0.0,0 STARLINK-4587,1 53635U 22104AZ  24135.81577688  .00017640  00000-0  11219-2 0  9990,2 53635  53.2176 324.3124 0001052 122.6265 237.4828 15.08897953 94988,6917.703,95.434,540.296,538.841,0.0
53635.0,STARLINK-4587,PAYLOAD,2024-05-15 13:03:55,15.08894415,0.000222,53.2261,321.0439,108.9134,251.2099,0.00042903,6.557e-05,0.0,0 STARLINK-4587,1 53635U 22104AZ  24136.54439426  .00006557  00000-0  42903-3 0  9998,2 53635  53.2261 321.0439 0002220 108.9134 251.2099 15.08894415 95093,6917.714,95.434,541.115,538.043,0.0
53635.0,STARLINK-4587,PAYLOAD,2024-05-15 17:50:04,15.08890497,0.0001432,53.2185,320.1506,108.6626,251.4522,0.00040181,6.121e-05,0.0,0 STARLINK-4587,1 53635U 22104AZ  24136.74310842  .00006121  00000-0  40181-3 0  9993,2 53635  53.2185 320.1506 0001432 108.6626 251.4522 15.08890497 96146,6917.726,95.434,540.582,538.6,0.0
53635.0,STARLINK-4587,PAYLOAD,2024-05-16 04:57:45,15.08886476,0.0001015,53.2146,318.0651,54.4009,305.7077,0.00059906,9.271e-05,0.0,0 STARLINK-4587,1 53635U 22104AZ  24137.20677816  .00009271  00000-0  59906-3 0  9996,2 53635  53.2146 318.0651 0001015  54.4009 305.7077 15.08886476 95194,6917.738,95.435,540.305,538.901,0.0
53635.0,STARLINK-4587,PAYLOAD,2024-05-16 22:26:59,15.08854407,0.000106,53.218,314.7962,258.573,101.5143,6.9109e-05,8.13e-06,0.0,0 STARLINK-4587,1 53635U 22104AZ  24137.93540561  .00000813  00000-0  69109-4 0  9992,2 53635  53.2180 314.7962 0001060 258.5730 101.5143 15.08854407 96329,6917.836,95.437,540.435,538.968,0.0
53635.0,STARLINK-4587,PAYLOAD,2024-05-17 04:48:33,15.08829324,0.000143,53.2163,313.6048,79.5643,280.5511,-0.00053742,-8.828e-05,0.0,0 STARLINK-4587,1 53635U 22104AZ  24138.20038238 -.00008828  00000-0 -53742-3 0  9997,2 53635  53.2163 313.6048 0001430  79.5643 280.5511 15.08829324 95346,6917.913,95.438,540.767,538.789,0.0
53635.0,STARLINK-4587,PAYLOAD,2024-05-17 11:10:06,15.08823432,0.0002004,53.215,312.4178,79.8465,280.2753,-0.0005112,-8.411e-05,0.0,0 STARLINK-4587,1 53635U 22104AZ  24138.46534865 -.00008411  00000-0 -51120-3 0  9998,2 53635  53.2150 312.4178 0002004  79.8465 280.2753 15.08823432 96403,6917.931,95.439,541.182,538.41,0.0
53635.0,STARLINK-4587,PAYLOAD,2024-05-18 04:39:20,15.08835811,0.0001073,53.2152,309.1464,98.6449,261.4665,0.00068761,0.00010671,0.0,0 STARLINK-4587,1 53635U 22104AZ  24139.19399240  .00010671  00000-0  68761-3 0  9993,2 53635  53.2152 309.1464 0001073  98.6449 261.4665 15.08835811 95497,6917.893,95.438,540.5,539.016,0.0
53635.0,STARLINK-4587,PAYLOAD,2024-05-18 11:00:53,15.08867553,0.0002224,53.2086,307.9566,89.3246,270.8001,0.0019047,0.00030179,0.0,0 STARLINK-4587,1 53635U 22104AZ  24139.45895488  .00030179  00000-0  19047-2 0  9994,2 53635  53.2086 307.9566 0002224  89.3246 270.8001 15.08867553 95534,6917.796,95.436,541.2,538.123,0.0
53635.0,STARLINK-4587,PAYLOAD,2024-05-18 18:57:47,15.08899975,0.0001435,53.2144,306.4716,85.2889,274.8267,0.0020958,0.00033279,0.0,0 STARLINK-4587,1 53635U 22104AZ  24139.79013825  .00033279  00000-0  20958-2 0  9995,2 53635  53.2144 306.4716 0001435  85.2889 274.8267 15.08899975 95587,6917.697,95.434,540.555,538.569,0.0
53635.0,STARLINK-4587,PAYLOAD,2024-05-19 04:30:07,15.08849667,0.0002012,53.2141,304.6865,70.5965,289.5245,-0.00026301,-4.473e-05,0.0,0 STARLINK-4587,1 53635U 22104AZ  24140.18758469 -.00004473  00000-0 -26301-3 0  9995,2 53635  53.2141 304.6865 0002012  70.5965 289.5245 15.08849667 95642,6917.851,95.437,541.108,538.324,0.0
53635.0,STARLINK-4587,PAYLOAD,2024-05-19 10:51:40,15.08826853,0.0002181,53.2145,303.4992,67.9221,292.2002,-0.00078973,-0.00012831,0.0,0 STARLINK-4587,1 53635U 22104AZ  24140.45254996 -.00012831  00000-0 -78973-3 0  9990,2 53635  53.2145 303.4992 0002181  67.9221 292.2002 15.08826853 96708,6917.921,95.438,541.294,538.277,0.0
53635.0,STARLINK-4587,PAYLOAD,2024-05-19 20:23:59,15.08818298,0.0001749,53.2146,301.7134,60.681,299.4357,0.0018282,0.0002891,0.0,0 STARLINK-4587,1 53635U 22104AZ  24140.84999846  .00028910  00000-0  18282-2 0  9992,2 53635  53.2146 301.7134 0001749  60.6810 299.4357 15.08818298 95740,6917.947,95.439,541.022,538.602,0.0
53635.0,STARLINK-4587,PAYLOAD,2024-05-20 13:53:14,15.08852565,0.0001683,53.2152,298.441,62.3418,297.7745,0.0015352,0.00024238,0.0,0 STARLINK-4587,1 53635U 22104AZ  24141.57863955  .00024238  00000-0  15352-2 0  9998,2 53635  53.2152 298.4410 0001683  62.3418 297.7745 15.08852565 96878,6917.842,95.437,540.871,538.543,0.0
53635.0,STARLINK-4587,PAYLOAD,2024-05-20 17:04:00,15.08854597,0.0001448,53.2164,297.8459,66.0438,294.0705,0.001395,0.00021992,0.0,0 STARLINK-4587,1 53635U 22104AZ  24141.71111815  .00021992  00000-0  13950-2 0  9991,2 53635  53.2164 297.8459 0001448  66.0438 294.0705 15.08854597 95871,6917.836,95.437,540.702,538.699,0.0
